CCSDS_OMM_VERS = 2.0
CREATION_DATE  = 
ORIGINATOR     = 

OBJECT_NAME    = SL-14 R/B
OBJECT_ID      = 1986-046B
CENTER_NAME    = EARTH
REF_FRAME      = TEME
TIME_SYSTEM    = UTC
MEAN_ELEMENT_THEORY = SGP/SGP4

EPOCH          = 2026-01-06T07:12:53.587872
MEAN_MOTION    = 14.85518850
ECCENTRICITY   = .00245014
INCLINATION    = 82.4834
RA_OF_ASC_NODE = 139.1199
ARG_OF_PERICENTER = 75.2011
MEAN_ANOMALY   = 285.1917

EPHEMERIS_TYPE = 0
CLASSIFICATION_TYPE = U
NORAD_CAT_ID   = 16792
ELEMENT_SET_NO = 999
REV_AT_EPOCH   = 11714
BSTAR          = .82869971E-4
MEAN_MOTION_DOT = .744E-5
MEAN_MOTION_DDOT = 0

CCSDS_OMM_VERS = 2.0
CREATION_DATE  = 
ORIGINATOR     = 

OBJECT_NAME    = SL-14 R/B
OBJECT_ID      = 1986-055B
CENTER_NAME    = EARTH
REF_FRAME      = TEME
TIME_SYSTEM    = UTC
MEAN_ELEMENT_THEORY = SGP/SGP4

EPOCH          = 2026-01-05T23:18:38.966112
MEAN_MOTION    = 14.85561460
ECCENTRICITY   = .00189797
INCLINATION    = 82.5198
RA_OF_ASC_NODE = 185.6026
ARG_OF_PERICENTER = 175.4755
MEAN_ANOMALY   = 299.0348

EPHEMERIS_TYPE = 0
CLASSIFICATION_TYPE = U
NORAD_CAT_ID   = 16882
ELEMENT_SET_NO = 999
REV_AT_EPOCH   = 11005
BSTAR          = .82388631E-4
MEAN_MOTION_DOT = .738E-5
MEAN_MOTION_DDOT = 0

CCSDS_OMM_VERS = 2.0
CREATION_DATE  = 
ORIGINATOR     = 

OBJECT_NAME    = AJISAI (EGS)
OBJECT_ID      = 1986-061A
CENTER_NAME    = EARTH
REF_FRAME      = TEME
TIME_SYSTEM    = UTC
MEAN_ELEMENT_THEORY = SGP/SGP4

EPOCH          = 2026-01-06T07:44:39.257376
MEAN_MOTION    = 12.44514680
ECCENTRICITY   = .00113133
INCLINATION    = 50.0100
RA_OF_ASC_NODE = 285.1275
ARG_OF_PERICENTER = 127.6172
MEAN_ANOMALY   = 327.2114

EPHEMERIS_TYPE = 0
CLASSIFICATION_TYPE = U
NORAD_CAT_ID   = 16908
ELEMENT_SET_NO = 999
REV_AT_EPOCH   = 46023
BSTAR          = .16894819E-3
MEAN_MOTION_DOT = -.74E-6
MEAN_MOTION_DDOT = 0

CCSDS_OMM_VERS = 2.0
CREATION_DATE  = 
ORIGINATOR     = 

OBJECT_NAME    = COSMOS 1812
OBJECT_ID      = 1987-003A
CENTER_NAME    = EARTH
REF_FRAME      = TEME
TIME_SYSTEM    = UTC
MEAN_ELEMENT_THEORY = SGP/SGP4

EPOCH          = 2026-01-06T04:53:43.276704
MEAN_MOTION    = 15.81740629
ECCENTRICITY   = .00042627
INCLINATION    = 82.4854
RA_OF_ASC_NODE = 265.4267
ARG_OF_PERICENTER = 58.3625
MEAN_ANOMALY   = 301.8058

EPHEMERIS_TYPE = 0
CLASSIFICATION_TYPE = U
NORAD_CAT_ID   = 17295
ELEMENT_SET_NO = 999
REV_AT_EPOCH   = 13451
BSTAR          = .63413524E-3
MEAN_MOTION_DOT = .128645E-2
MEAN_MOTION_DDOT = 0

CCSDS_OMM_VERS = 2.0
CREATION_DATE  = 
ORIGINATOR     = 

OBJECT_NAME    = SL-14 R/B
OBJECT_ID      = 1987-024B
CENTER_NAME    = EARTH
REF_FRAME      = TEME
TIME_SYSTEM    = UTC
MEAN_ELEMENT_THEORY = SGP/SGP4

EPOCH          = 2026-01-06T03:42:44.239680
MEAN_MOTION    = 14.86058159
ECCENTRICITY   = .00196355
INCLINATION    = 82.5291
RA_OF_ASC_NODE = 151.5194
ARG_OF_PERICENTER = 106.7083
MEAN_ANOMALY   = 253.6290

EPHEMERIS_TYPE = 0
CLASSIFICATION_TYPE = U
NORAD_CAT_ID   = 17567
ELEMENT_SET_NO = 999
REV_AT_EPOCH   = 7884
BSTAR          = .86968357E-4
MEAN_MOTION_DOT = .788E-5
MEAN_MOTION_DDOT = 0

CCSDS_OMM_VERS = 2.0
CREATION_DATE  = 
ORIGINATOR     = 

OBJECT_NAME    = COSMOS 1833
OBJECT_ID      = 1987-027A
CENTER_NAME    = EARTH
REF_FRAME      = TEME
TIME_SYSTEM    = UTC
MEAN_ELEMENT_THEORY = SGP/SGP4

EPOCH          = 2026-01-06T06:46:21.180576
MEAN_MOTION    = 14.13037387
ECCENTRICITY   = .00237017
INCLINATION    = 70.9185
RA_OF_ASC_NODE = 97.1878
ARG_OF_PERICENTER = 297.6380
MEAN_ANOMALY   = 62.2335

EPHEMERIS_TYPE = 0
CLASSIFICATION_TYPE = U
NORAD_CAT_ID   = 17589
ELEMENT_SET_NO = 999
REV_AT_EPOCH   = 150
BSTAR          = .21629207E-3
MEAN_MOTION_DOT = .357E-5
MEAN_MOTION_DDOT = 0

CCSDS_OMM_VERS = 2.0
CREATION_DATE  = 
ORIGINATOR     = 

OBJECT_NAME    = SL-16 R/B
OBJECT_ID      = 1987-027B
CENTER_NAME    = EARTH
REF_FRAME      = TEME
TIME_SYSTEM    = UTC
MEAN_ELEMENT_THEORY = SGP/SGP4

EPOCH          = 2026-01-06T07:05:27.473568
MEAN_MOTION    = 14.17157171
ECCENTRICITY   = .00068301
INCLINATION    = 71.0031
RA_OF_ASC_NODE = 47.9748
ARG_OF_PERICENTER = 233.5939
MEAN_ANOMALY   = 126.4555

EPHEMERIS_TYPE = 0
CLASSIFICATION_TYPE = U
NORAD_CAT_ID   = 17590
ELEMENT_SET_NO = 999
REV_AT_EPOCH   = 650
BSTAR          = .12890281E-3
MEAN_MOTION_DOT = .212E-5
MEAN_MOTION_DDOT = 0

CCSDS_OMM_VERS = 2.0
CREATION_DATE  = 
ORIGINATOR     = 

OBJECT_NAME    = SL-14 R/B
OBJECT_ID      = 1987-038B
CENTER_NAME    = EARTH
REF_FRAME      = TEME
TIME_SYSTEM    = UTC
MEAN_ELEMENT_THEORY = SGP/SGP4

EPOCH          = 2026-01-06T07:40:08.760576
MEAN_MOTION    = 14.85291717
ECCENTRICITY   = .00197003
INCLINATION    = 82.5016
RA_OF_ASC_NODE = 355.5467
ARG_OF_PERICENTER = 15.5057
MEAN_ANOMALY   = 344.6758

EPHEMERIS_TYPE = 0
CLASSIFICATION_TYPE = U
NORAD_CAT_ID   = 17912
ELEMENT_SET_NO = 999
REV_AT_EPOCH   = 6997
BSTAR          = .79038692E-4
MEAN_MOTION_DOT = .705E-5
MEAN_MOTION_DDOT = 0

CCSDS_OMM_VERS = 2.0
CREATION_DATE  = 
ORIGINATOR     = 

OBJECT_NAME    = COSMOS 1844
OBJECT_ID      = 1987-041A
CENTER_NAME    = EARTH
REF_FRAME      = TEME
TIME_SYSTEM    = UTC
MEAN_ELEMENT_THEORY = SGP/SGP4

EPOCH          = 2026-01-06T04:06:19.154592
MEAN_MOTION    = 14.14539141
ECCENTRICITY   = .00286565
INCLINATION    = 70.8990
RA_OF_ASC_NODE = 166.0411
ARG_OF_PERICENTER = 118.4851
MEAN_ANOMALY   = 241.9162

EPHEMERIS_TYPE = 0
CLASSIFICATION_TYPE = U
NORAD_CAT_ID   = 17973
ELEMENT_SET_NO = 999
REV_AT_EPOCH   = 99474
BSTAR          = .4467976E-4
MEAN_MOTION_DOT = .38E-6
MEAN_MOTION_DDOT = 0

CCSDS_OMM_VERS = 2.0
CREATION_DATE  = 
ORIGINATOR     = 

OBJECT_NAME    = SL-14 R/B
OBJECT_ID      = 1987-055B
CENTER_NAME    = EARTH
REF_FRAME      = TEME
TIME_SYSTEM    = UTC
MEAN_ELEMENT_THEORY = SGP/SGP4

EPOCH          = 2026-01-06T04:08:18.600000
MEAN_MOTION    = 14.85550978
ECCENTRICITY   = .0019754
INCLINATION    = 82.4981
RA_OF_ASC_NODE = 47.9592
ARG_OF_PERICENTER = 216.9253
MEAN_ANOMALY   = 143.0604

EPHEMERIS_TYPE = 0
CLASSIFICATION_TYPE = U
NORAD_CAT_ID   = 18153
ELEMENT_SET_NO = 999
REV_AT_EPOCH   = 6065
BSTAR          = .68186357E-4
MEAN_MOTION_DOT = .615E-5
MEAN_MOTION_DDOT = 0

CCSDS_OMM_VERS = 2.0
CREATION_DATE  = 
ORIGINATOR     = 

OBJECT_NAME    = COSMOS 1867
OBJECT_ID      = 1987-060A
CENTER_NAME    = EARTH
REF_FRAME      = TEME
TIME_SYSTEM    = UTC
MEAN_ELEMENT_THEORY = SGP/SGP4

EPOCH          = 2026-01-05T16:55:42.029184
MEAN_MOTION    = 14.31491323
ECCENTRICITY   = .00138202
INCLINATION    = 65.0110
RA_OF_ASC_NODE = 123.0899
ARG_OF_PERICENTER = 273.5698
MEAN_ANOMALY   = 86.3806

EPHEMERIS_TYPE = 0
CLASSIFICATION_TYPE = U
NORAD_CAT_ID   = 18187
ELEMENT_SET_NO = 999
REV_AT_EPOCH   = 1092
BSTAR          = .42669241E-4
MEAN_MOTION_DOT = .13E-6
MEAN_MOTION_DDOT = 0

CCSDS_OMM_VERS = 2.0
CREATION_DATE  = 
ORIGINATOR     = 

OBJECT_NAME    = SL-14 R/B
OBJECT_ID      = 1988-001B
CENTER_NAME    = EARTH
REF_FRAME      = TEME
TIME_SYSTEM    = UTC
MEAN_ELEMENT_THEORY = SGP/SGP4

EPOCH          = 2026-01-06T03:55:39.507744
MEAN_MOTION    = 14.85454033
ECCENTRICITY   = .00196276
INCLINATION    = 82.5125
RA_OF_ASC_NODE = 254.1765
ARG_OF_PERICENTER = 85.3894
MEAN_ANOMALY   = 274.9563

EPHEMERIS_TYPE = 0
CLASSIFICATION_TYPE = U
NORAD_CAT_ID   = 18749
ELEMENT_SET_NO = 999
REV_AT_EPOCH   = 3274
BSTAR          = .70336279E-4
MEAN_MOTION_DOT = .633E-5
MEAN_MOTION_DDOT = 0

