SL-14 R/B               
1 16792U 86046B   26006.30062023  .00000744  00000+0  82870-4 0  9992
2 16792  82.4834 139.1199 0024501  75.2011 285.1917 14.85518850117149
SL-14 R/B               
1 16882U 86055B   26005.97128433  .00000738  00000+0  82389-4 0  9990
2 16882  82.5198 185.6026 0018979 175.4755 299.0348 14.85561460110058
AJISAI (EGS)            
1 16908U 86061A   26006.32267659 -.00000074  00000+0  16895-3 0  9992
2 16908  50.0100 285.1275 0011313 127.6172 327.2114 12.44514680460237
COSMOS 1812             
1 17295U 87003A   26006.20397311  .00128645  00000+0  63414-3 0  9998
2 17295  82.4854 265.4267 0004262  58.3625 301.8058 15.81740629134514
SL-14 R/B               
1 17567U 87024B   26006.15467870  .00000788  00000+0  86968-4 0  9992
2 17567  82.5291 151.5194 0019635 106.7083 253.6290 14.86058159 78841
COSMOS 1833             
1 17589U 87027A   26006.28218959  .00000357  00000+0  21629-3 0  9999
2 17589  70.9185  97.1878 0023701 297.6380  62.2335 14.13037387  1504
SL-16 R/B               
1 17590U 87027B   26006.29545687  .00000212  00000+0  12890-3 0  9993
2 17590  71.0031  47.9748 0006830 233.5939 126.4555 14.17157171  6500
SL-14 R/B               
1 17912U 87038B   26006.31954584  .00000705  00000+0  79039-4 0  9992
2 17912  82.5016 355.5467 0019700  15.5057 344.6758 14.85291717 69972
COSMOS 1844             
1 17973U 87041A   26006.17105503  .00000038  00000+0  44680-4 0  9999
2 17973  70.8990 166.0411 0028656 118.4851 241.9162 14.14539141994747
SL-14 R/B               
1 18153U 87055B   26006.17243750  .00000615  00000+0  68186-4 0  9990
2 18153  82.4981  47.9592 0019754 216.9253 143.0604 14.85550978 60659
COSMOS 1867             
1 18187U 87060A   26005.70534756  .00000013  00000+0  42669-4 0  9990
2 18187  65.0110 123.0899 0013820 273.5698  86.3806 14.31491323 10920
SL-14 R/B               
1 18749U 88001B   26006.16365171  .00000633  00000+0  70336-4 0  9994
2 18749  82.5125 254.1765 0019627  85.3894 274.9563 14.85454033 32745
